STARLINK-31189          
1 58787U 24012A   26068.31969432 -.00000278  00000+0 -59323-6 0  9999
2 58787  43.0004 166.9767 0000765 234.6094 125.4687 15.27572094121184
HAWK-11B                
1 62379U 24247C   26068.44730104  .00009093  00000+0  32842-3 0  9993
2 62379  45.0161 115.7610 0004690 333.0326  27.0314 15.28847070 67738
